STARLINK-11649 [DTC]    
1 64069U 25107F   25307.81061185  .00259945  00000+0  19630-2 0  9991
2 64069  43.0031 137.6092 0003105 272.2805  87.7707 15.70882573 27495
STARLINK-11713 [DTC]    
1 64070U 25107G   25307.65159123  .00226682  00000+0  17202-2 0  9990
2 64070  43.0032 138.1214 0005126 283.8636  76.1661 15.70858865 27471
STARLINK-11719 [DTC]    
1 64071U 25107H   25307.54035102  .00441104  00000+0  32362-2 0  9991
2 64071  42.9982 139.0126 0002667 252.7127 107.3449 15.71029582 27459
STARLINK-11733 [DTC]    
1 64072U 25107J   25307.83336806 -.00122221  00000+0 -96079-3 0  9993
2 64072  42.9993 136.8008 0001449 273.4518 125.9973 15.70895401  6036
STARLINK-11729 [DTC]    
1 64073U 25107K   25307.54565935  .00267230  00000+0  20089-2 0  9994
2 64073  43.0023 139.0547 0003038 246.1723 113.8826 15.70968160 27452
STARLINK-11730 [DTC]    
1 64074U 25107L   25307.59862332  .00274893  00000+0  20727-2 0  9993
2 64074  42.9988 138.5851 0002157 271.1002  88.9618 15.70874597 27464
STARLINK-11723 [DTC]    
1 64075U 25107M   25307.58269604  .00378055  00000+0  27885-2 0  9993
2 64075  42.9984 138.4569 0002605 253.1953 106.8629 15.71089057 27461
STARLINK-11715 [DTC]    
1 64076U 25107N   25307.81578985  .00338827  00000+0  25298-2 0  9994
2 64076  42.9983 136.7518 0000746 226.3941 133.6865 15.70915315 27508
STARLINK-34201          
1 64077U 25107P   25307.73224490 -.00003602  00000+0 -12151-3 0  9992
2 64077  43.0009 193.1744 0001596 244.5817 115.4869 15.27555992 25767
STARLINK-34190          
1 64078U 25107Q   25307.70655955  .00020154  00000+0  73943-3 0  9999
2 64078  42.9982 192.9767 0000275 200.0071 160.0770 15.27601373 26853
STARLINK-34168          
1 64079U 25107R   25305.98853967  .00033211  00000+0  12104-2 0  9990
2 64079  43.0037 202.4435 0001548 260.0060 100.0617 15.27595208 26598
STARLINK-34098          
1 64080U 25107S   25307.69628340  .00036467  00000+0  13271-2 0  9999
2 64080  42.9947 192.8927 0000129 256.8919 103.1918 15.27605401 26850
STARLINK-34180          
1 64081U 25107T   25307.71812528  .00001117  00000+0  50092-4 0  9994
2 64081  43.0005 193.0643 0001227 276.6377  83.4335 15.27579274 26855
STARLINK-34171          
1 64082U 25107U   25307.68471497  .00018740  00000+0  68841-3 0  9997
2 64082  43.0026 192.8109 0001269 275.8506  84.2201 15.27597905 26856
STARLINK-34126          
1 64083U 25107V   25306.42067902  .00025592  00000+0  93537-3 0  9994
2 64083  43.0045 200.5299 0001675 277.7897  82.2765 15.27612197 25561
STARLINK-34157          
1 64084U 25107W   25305.99367705  .00023691  00000+0  86730-3 0  9995
2 64084  43.0051 202.4772 0002623 281.0430  79.0127 15.27593391 26573
