[{"OBJECT_NAME":"STARLINK-11649 [DTC]","OBJECT_ID":"2025-107F","EPOCH":"2025-11-03T19:27:16.863840","MEAN_MOTION":15.70882573,"ECCENTRICITY":0.0003105,"INCLINATION":43.0031,"RA_OF_ASC_NODE":137.6092,"ARG_OF_PERICENTER":272.2805,"MEAN_ANOMALY":87.7707,"EPHEMERIS_TYPE":0,"CLASSIFICATION_TYPE":"U","NORAD_CAT_ID":64069,"ELEMENT_SET_NO":999,"REV_AT_EPOCH":2749,"BSTAR":0.001963,"MEAN_MOTION_DOT":0.00259945,"MEAN_MOTION_DDOT":0},{"OBJECT_NAME":"STARLINK-11713 [DTC]","OBJECT_ID":"2025-107G","EPOCH":"2025-11-03T15:38:17.482272","MEAN_MOTION":15.70858865,"ECCENTRICITY":0.0005126,"INCLINATION":43.0032,"RA_OF_ASC_NODE":138.1214,"ARG_OF_PERICENTER":283.8636,"MEAN_ANOMALY":76.1661,"EPHEMERIS_TYPE":0,"CLASSIFICATION_TYPE":"U","NORAD_CAT_ID":64070,"ELEMENT_SET_NO":999,"REV_AT_EPOCH":2747,"BSTAR":0.0017202,"MEAN_MOTION_DOT":0.00226682,"MEAN_MOTION_DDOT":0},{"OBJECT_NAME":"STARLINK-11719 [DTC]","OBJECT_ID":"2025-107H","EPOCH":"2025-11-03T12:58:06.328128","MEAN_MOTION":15.71029582,"ECCENTRICITY":0.0002667,"INCLINATION":42.9982,"RA_OF_ASC_NODE":139.0126,"ARG_OF_PERICENTER":252.7127,"MEAN_ANOMALY":107.3449,"EPHEMERIS_TYPE":0,"CLASSIFICATION_TYPE":"U","NORAD_CAT_ID":64071,"ELEMENT_SET_NO":999,"REV_AT_EPOCH":2745,"BSTAR":0.0032362,"MEAN_MOTION_DOT":0.00441104,"MEAN_MOTION_DDOT":0},{"OBJECT_NAME":"STARLINK-11733 [DTC]","OBJECT_ID":"2025-107J","EPOCH":"2025-11-03T20:00:03.000384","MEAN_MOTION":15.70895401,"ECCENTRICITY":0.0001449,"INCLINATION":42.9993,"RA_OF_ASC_NODE":136.8008,"ARG_OF_PERICENTER":273.4518,"MEAN_ANOMALY":125.9973,"EPHEMERIS_TYPE":0,"CLASSIFICATION_TYPE":"U","NORAD_CAT_ID":64072,"ELEMENT_SET_NO":999,"REV_AT_EPOCH":603,"BSTAR":-0.00096079,"MEAN_MOTION_DOT":-0.00122221,"MEAN_MOTION_DDOT":0},{"OBJECT_NAME":"STARLINK-11729 [DTC]","OBJECT_ID":"2025-107K","EPOCH":"2025-11-03T13:05:44.967840","MEAN_MOTION":15.7096816,"ECCENTRICITY":0.0003038,"INCLINATION":43.0023,"RA_OF_ASC_NODE":139.0547,"ARG_OF_PERICENTER":246.1723,"MEAN_ANOMALY":113.8826,"EPHEMERIS_TYPE":0,"CLASSIFICATION_TYPE":"U","NORAD_CAT_ID":64073,"ELEMENT_SET_NO":999,"REV_AT_EPOCH":2745,"BSTAR":0.0020089,"MEAN_MOTION_DOT":0.0026723,"MEAN_MOTION_DDOT":0},{"OBJECT_NAME":"STARLINK-11730 [DTC]","OBJECT_ID":"2025-107L","EPOCH":"2025-11-03T14:22:01.054848","MEAN_MOTION":15.70874597,"ECCENTRICITY":0.0002157,"INCLINATION":42.9988,"RA_OF_ASC_NODE":138.5851,"ARG_OF_PERICENTER":271.1002,"MEAN_ANOMALY":88.9618,"EPHEMERIS_TYPE":0,"CLASSIFICATION_TYPE":"U","NORAD_CAT_ID":64074,"ELEMENT_SET_NO":999,"REV_AT_EPOCH":2746,"BSTAR":0.0020727,"MEAN_MOTION_DOT":0.00274893,"MEAN_MOTION_DDOT":0},{"OBJECT_NAME":"STARLINK-11723 [DTC]","OBJECT_ID":"2025-107M","EPOCH":"2025-11-03T13:59:04.937856","MEAN_MOTION":15.71089057,"ECCENTRICITY":0.0002605,"INCLINATION":42.9984,"RA_OF_ASC_NODE":138.4569,"ARG_OF_PERICENTER":253.1953,"MEAN_ANOMALY":106.8629,"EPHEMERIS_TYPE":0,"CLASSIFICATION_TYPE":"U","NORAD_CAT_ID":64075,"ELEMENT_SET_NO":999,"REV_AT_EPOCH":2746,"BSTAR":0.0027885,"MEAN_MOTION_DOT":0.00378055,"MEAN_MOTION_DDOT":0},{"OBJECT_NAME":"STARLINK-11715 [DTC]","OBJECT_ID":"2025-107N","EPOCH":"2025-11-03T19:34:44.243040","MEAN_MOTION":15.70915315,"ECCENTRICITY":7.46e-5,"INCLINATION":42.9983,"RA_OF_ASC_NODE":136.7518,"ARG_OF_PERICENTER":226.3941,"MEAN_ANOMALY":133.6865,"EPHEMERIS_TYPE":0,"CLASSIFICATION_TYPE":"U","NORAD_CAT_ID":64076,"ELEMENT_SET_NO":999,"REV_AT_EPOCH":2750,"BSTAR":0.0025298,"MEAN_MOTION_DOT":0.00338827,"MEAN_MOTION_DDOT":0},{"OBJECT_NAME":"STARLINK-34201","OBJECT_ID":"2025-107P","EPOCH":"2025-11-03T17:34:25.959360","MEAN_MOTION":15.27555992,"ECCENTRICITY":0.0001596,"INCLINATION":43.0009,"RA_OF_ASC_NODE":193.1744,"ARG_OF_PERICENTER":244.5817,"MEAN_ANOMALY":115.4869,"EPHEMERIS_TYPE":0,"CLASSIFICATION_TYPE":"U","NORAD_CAT_ID":64077,"ELEMENT_SET_NO":999,"REV_AT_EPOCH":2576,"BSTAR":-0.00012151,"MEAN_MOTION_DOT":-3.602e-5,"MEAN_MOTION_DDOT":0},{"OBJECT_NAME":"STARLINK-34190","OBJECT_ID":"2025-107Q","EPOCH":"2025-11-03T16:57:26.745120","MEAN_MOTION":15.27601373,"ECCENTRICITY":2.75e-5,"INCLINATION":42.9982,"RA_OF_ASC_NODE":192.9767,"ARG_OF_PERICENTER":200.0071,"MEAN_ANOMALY":160.077,"EPHEMERIS_TYPE":0,"CLASSIFICATION_TYPE":"U","NORAD_CAT_ID":64078,"ELEMENT_SET_NO":999,"REV_AT_EPOCH":2685,"BSTAR":0.00073943,"MEAN_MOTION_DOT":0.00020154,"MEAN_MOTION_DDOT":0},{"OBJECT_NAME":"STARLINK-34168","OBJECT_ID":"2025-107R","EPOCH":"2025-11-01T23:43:29.827488","MEAN_MOTION":15.27595208,"ECCENTRICITY":0.00015484,"INCLINATION":43.0037,"RA_OF_ASC_NODE":202.4435,"ARG_OF_PERICENTER":260.006,"MEAN_ANOMALY":100.0617,"EPHEMERIS_TYPE":0,"CLASSIFICATION_TYPE":"U","NORAD_CAT_ID":64079,"ELEMENT_SET_NO":999,"REV_AT_EPOCH":2659,"BSTAR":0.001210392,"MEAN_MOTION_DOT":0.00033211,"MEAN_MOTION_DDOT":0},{"OBJECT_NAME":"STARLINK-34098","OBJECT_ID":"2025-107S","EPOCH":"2025-11-03T16:42:38.885760","MEAN_MOTION":15.27605401,"ECCENTRICITY":1.29e-5,"INCLINATION":42.9947,"RA_OF_ASC_NODE":192.8927,"ARG_OF_PERICENTER":256.8919,"MEAN_ANOMALY":103.1918,"EPHEMERIS_TYPE":0,"CLASSIFICATION_TYPE":"U","NORAD_CAT_ID":64080,"ELEMENT_SET_NO":999,"REV_AT_EPOCH":2685,"BSTAR":0.0013271,"MEAN_MOTION_DOT":0.00036467,"MEAN_MOTION_DDOT":0},{"OBJECT_NAME":"STARLINK-34180","OBJECT_ID":"2025-107T","EPOCH":"2025-11-03T17:14:06.024192","MEAN_MOTION":15.27579274,"ECCENTRICITY":0.0001227,"INCLINATION":43.0005,"RA_OF_ASC_NODE":193.0643,"ARG_OF_PERICENTER":276.6377,"MEAN_ANOMALY":83.4335,"EPHEMERIS_TYPE":0,"CLASSIFICATION_TYPE":"U","NORAD_CAT_ID":64081,"ELEMENT_SET_NO":999,"REV_AT_EPOCH":2685,"BSTAR":5.0092e-5,"MEAN_MOTION_DOT":1.117e-5,"MEAN_MOTION_DDOT":0},{"OBJECT_NAME":"STARLINK-34171","OBJECT_ID":"2025-107U","EPOCH":"2025-11-03T16:25:59.373408","MEAN_MOTION":15.27597905,"ECCENTRICITY":0.0001269,"INCLINATION":43.0026,"RA_OF_ASC_NODE":192.8109,"ARG_OF_PERICENTER":275.8506,"MEAN_ANOMALY":84.2201,"EPHEMERIS_TYPE":0,"CLASSIFICATION_TYPE":"U","NORAD_CAT_ID":64082,"ELEMENT_SET_NO":999,"REV_AT_EPOCH":2685,"BSTAR":0.00068841,"MEAN_MOTION_DOT":0.0001874,"MEAN_MOTION_DDOT":0},{"OBJECT_NAME":"STARLINK-34126","OBJECT_ID":"2025-107V","EPOCH":"2025-11-02T10:05:46.667328","MEAN_MOTION":15.27612197,"ECCENTRICITY":0.0001675,"INCLINATION":43.0045,"RA_OF_ASC_NODE":200.5299,"ARG_OF_PERICENTER":277.7897,"MEAN_ANOMALY":82.2765,"EPHEMERIS_TYPE":0,"CLASSIFICATION_TYPE":"U","NORAD_CAT_ID":64083,"ELEMENT_SET_NO":999,"REV_AT_EPOCH":2556,"BSTAR":0.00093537,"MEAN_MOTION_DOT":0.00025592,"MEAN_MOTION_DDOT":0},{"OBJECT_NAME":"STARLINK-34157","OBJECT_ID":"2025-107W","EPOCH":"2025-11-01T23:50:53.697120","MEAN_MOTION":15.27593391,"ECCENTRICITY":0.00026231,"INCLINATION":43.0051,"RA_OF_ASC_NODE":202.4772,"ARG_OF_PERICENTER":281.043,"MEAN_ANOMALY":79.0127,"EPHEMERIS_TYPE":0,"CLASSIFICATION_TYPE":"U","NORAD_CAT_ID":64084,"ELEMENT_SET_NO":999,"REV_AT_EPOCH":2657,"BSTAR":0.00086729904,"MEAN_MOTION_DOT":0.00023691,"MEAN_MOTION_DDOT":0}]
